ION SCV-017             
1 63230U 25052W   26068.71648816  .00006457  00000+0  24539-3 0  9998
2 63230  97.4016 324.7516 0023746  44.9875 315.3282 15.26881798 54851
KUIPER-00204            
1 67145U 25301N   26068.39760395  .00020516  00000+0  79568-3 0  9999
2 67145  51.8870  71.6415 0003071 354.8934   5.2016 15.26088400 13737
